[{"OBJECT_NAME":"STARLINK-34468","OBJECT_ID":"2025-129N","EPOCH":"2026-03-09T10:22:07.264992","MEAN_MOTION":14.98335708,"ECCENTRICITY":0.00034178,"INCLINATION":70.0009,"RA_OF_ASC_NODE":75.3087,"ARG_OF_PERICENTER":270.1847,"MEAN_ANOMALY":89.8921,"EPHEMERIS_TYPE":0,"CLASSIFICATION_TYPE":"U","NORAD_CAT_ID":64424,"ELEMENT_SET_NO":999,"REV_AT_EPOCH":4124,"BSTAR":0.0002237769,"MEAN_MOTION_DOT":2.578e-5,"MEAN_MOTION_DDOT":0},{"OBJECT_NAME":"CUBEBUG-1 (CAPITAN BETO)","OBJECT_ID":"2013-018D","EPOCH":"2026-03-09T23:22:32.558880","MEAN_MOTION":14.96591533,"ECCENTRICITY":0.00130794,"INCLINATION":98.1526,"RA_OF_ASC_NODE":224.6129,"ARG_OF_PERICENTER":115.5703,"MEAN_ANOMALY":244.6871,"EPHEMERIS_TYPE":0,"CLASSIFICATION_TYPE":"U","NORAD_CAT_ID":39153,"ELEMENT_SET_NO":999,"REV_AT_EPOCH":69622,"BSTAR":0.00052624565,"MEAN_MOTION_DOT":5.941e-5,"MEAN_MOTION_DDOT":0}]
